Hongyan #400256
1 99999U 24029BR  24283.46883102  .00001103  00000-0  33518-4 0  9998
2 99999  50.0000 288.7036 0003481 299.7327   0.3331 13.44416573  1771
Hongyan #400257
1 99999U 24029BR  24283.46883102  .00001103  00000-0  33518-4 0  9998
2 99999  50.0000 289.8286 0003481 299.7327   0.3331 13.44416573  1771
Hongyan #400258
1 99999U 24029BR  24283.46883102  .00001103  00000-0  33518-4 0  9998
2 99999  50.0000 290.9536 0003481 299.7327   0.3331 13.44416573  1771
Hongyan #400259
1 99999U 24029BR  24283.46883102  .00001103  00000-0  33518-4 0  9998
2 99999  50.0000 292.0786 0003481 299.7327   0.3331 13.44416573  1771
Hongyan #400260
1 99999U 24029BR  24283.46883102  .00001103  00000-0  33518-4 0  9998
2 99999  50.0000 293.2036 0003481 299.7327   0.3331 13.44416573  1771
Hongyan #400261
1 99999U 24029BR  24283.46883102  .00001103  00000-0  33518-4 0  9998
2 99999  50.0000 294.3286 0003481 299.7327   0.3331 13.44416573  1771
Hongyan #400262
1 99999U 24029BR  24283.46883102  .00001103  00000-0  33518-4 0  9998
2 99999  50.0000 295.4536 0003481 299.7327   0.3331 13.44416573  1771
Hongyan #400263
1 99999U 24029BR  24283.46883102  .00001103  00000-0  33518-4 0  9998
2 99999  50.0000 296.5786 0003481 299.7327   0.3331 13.44416573  1771
Hongyan #400264
1 99999U 24029BR  24283.46883102  .00001103  00000-0  33518-4 0  9998
2 99999  50.0000 297.7036 0003481 299.7327   0.3331 13.44416573  1771
Hongyan #400265
1 99999U 24029BR  24283.46883102  .00001103  00000-0  33518-4 0  9998
2 99999  50.0000 298.8286 0003481 299.7327   0.3331 13.44416573  1771
Hongyan #400266
1 99999U 24029BR  24283.46883102  .00001103  00000-0  33518-4 0  9998
2 99999  50.0000 299.9536 0003481 299.7327   0.3331 13.44416573  1771
Hongyan #400267
1 99999U 24029BR  24283.46883102  .00001103  00000-0  33518-4 0  9998
2 99999  50.0000 301.0786 0003481 299.7327   0.3331 13.44416573  1771
Hongyan #400268
1 99999U 24029BR  24283.46883102  .00001103  00000-0  33518-4 0  9998
2 99999  50.0000 302.2036 0003481 299.7327   0.3331 13.44416573  1771
Hongyan #400269
1 99999U 24029BR  24283.46883102  .00001103  00000-0  33518-4 0  9998
2 99999  50.0000 303.3286 0003481 299.7327   0.3331 13.44416573  1771
Hongyan #400270
1 99999U 24029BR  24283.46883102  .00001103  00000-0  33518-4 0  9998
2 99999  50.0000 304.4536 0003481 299.7327   0.3331 13.44416573  1771
Hongyan #400271
1 99999U 24029BR  24283.46883102  .00001103  00000-0  33518-4 0  9998
2 99999  50.0000 305.5786 0003481 299.7327   0.3331 13.44416573  1771
Hongyan #400272
1 99999U 24029BR  24283.46883102  .00001103  00000-0  33518-4 0  9998
2 99999  50.0000 306.7036 0003481 299.7327   0.3331 13.44416573  1771
Hongyan #400273
1 99999U 24029BR  24283.46883102  .00001103  00000-0  33518-4 0  9998
2 99999  50.0000 307.8286 0003481 299.7327   0.3331 13.44416573  1771
Hongyan #400274
1 99999U 24029BR  24283.46883102  .00001103  00000-0  33518-4 0  9998
2 99999  50.0000 308.9536 0003481 299.7327   0.3331 13.44416573  1771
Hongyan #400275
1 99999U 24029BR  24283.46883102  .00001103  00000-0  33518-4 0  9998
2 99999  50.0000 310.0786 0003481 299.7327   0.3331 13.44416573  1771
Hongyan #400276
1 99999U 24029BR  24283.46883102  .00001103  00000-0  33518-4 0  9998
2 99999  50.0000 311.2036 0003481 299.7327   0.3331 13.44416573  1771
Hongyan #400277
1 99999U 24029BR  24283.46883102  .00001103  00000-0  33518-4 0  9998
2 99999  50.0000 312.3286 0003481 299.7327   0.3331 13.44416573  1771
Hongyan #400278
1 99999U 24029BR  24283.46883102  .00001103  00000-0  33518-4 0  9998
2 99999  50.0000 313.4536 0003481 299.7327   0.3331 13.44416573  1771
Hongyan #400279
1 99999U 24029BR  24283.46883102  .00001103  00000-0  33518-4 0  9998
2 99999  50.0000 314.5786 0003481 299.7327   0.3331 13.44416573  1771
Hongyan #400280
1 99999U 24029BR  24283.46883102  .00001103  00000-0  33518-4 0  9998
2 99999  50.0000 315.7036 0003481 299.7327   0.3331 13.44416573  1771
Hongyan #400281
1 99999U 24029BR  24283.46883102  .00001103  00000-0  33518-4 0  9998
2 99999  50.0000 316.8286 0003481 299.7327   0.3331 13.44416573  1771
Hongyan #400282
1 99999U 24029BR  24283.46883102  .00001103  00000-0  33518-4 0  9998
2 99999  50.0000 317.9536 0003481 299.7327   0.3331 13.44416573  1771
Hongyan #400283
1 99999U 24029BR  24283.46883102  .00001103  00000-0  33518-4 0  9998
2 99999  50.0000 319.0786 0003481 299.7327   0.3331 13.44416573  1771
Hongyan #400284
1 99999U 24029BR  24283.46883102  .00001103  00000-0  33518-4 0  9998
2 99999  50.0000 320.2036 0003481 299.7327   0.3331 13.44416573  1771
Hongyan #400285
1 99999U 24029BR  24283.46883102  .00001103  00000-0  33518-4 0  9998
2 99999  50.0000 321.3286 0003481 299.7327   0.3331 13.44416573  1771
Hongyan #400286
1 99999U 24029BR  24283.46883102  .00001103  00000-0  33518-4 0  9998
2 99999  50.0000 322.4536 0003481 299.7327   0.3331 13.44416573  1771
Hongyan #400287
1 99999U 24029BR  24283.46883102  .00001103  00000-0  33518-4 0  9998
2 99999  50.0000 323.5786 0003481 299.7327   0.3331 13.44416573  1771
Hongyan #400288
1 99999U 24029BR  24283.46883102  .00001103  00000-0  33518-4 0  9998
2 99999  50.0000 324.7036 0003481 299.7327   0.3331 13.44416573  1771
Hongyan #400289
1 99999U 24029BR  24283.46883102  .00001103  00000-0  33518-4 0  9998
2 99999  50.0000 325.8286 0003481 299.7327   0.3331 13.44416573  1771
Hongyan #400290
1 99999U 24029BR  24283.46883102  .00001103  00000-0  33518-4 0  9998
2 99999  50.0000 326.9536 0003481 299.7327   0.3331 13.44416573  1771
Hongyan #400291
1 99999U 24029BR  24283.46883102  .00001103  00000-0  33518-4 0  9998
2 99999  50.0000 328.0786 0003481 299.7327   0.3331 13.44416573  1771
Hongyan #400292
1 99999U 24029BR  24283.46883102  .00001103  00000-0  33518-4 0  9998
2 99999  50.0000 329.2036 0003481 299.7327   0.3331 13.44416573  1771
Hongyan #400293
1 99999U 24029BR  24283.46883102  .00001103  00000-0  33518-4 0  9998
2 99999  50.0000 330.3286 0003481 299.7327   0.3331 13.44416573  1771
Hongyan #400294
1 99999U 24029BR  24283.46883102  .00001103  00000-0  33518-4 0  9998
2 99999  50.0000 331.4536 0003481 299.7327   0.3331 13.44416573  1771
Hongyan #400295
1 99999U 24029BR  24283.46883102  .00001103  00000-0  33518-4 0  9998
2 99999  50.0000 332.5786 0003481 299.7327   0.3331 13.44416573  1771
Hongyan #400296
1 99999U 24029BR  24283.46883102  .00001103  00000-0  33518-4 0  9998
2 99999  50.0000 333.7036 0003481 299.7327   0.3331 13.44416573  1771
Hongyan #400297
1 99999U 24029BR  24283.46883102  .00001103  00000-0  33518-4 0  9998
2 99999  50.0000 334.8286 0003481 299.7327   0.3331 13.44416573  1771
Hongyan #400298
1 99999U 24029BR  24283.46883102  .00001103  00000-0  33518-4 0  9998
2 99999  50.0000 335.9536 0003481 299.7327   0.3331 13.44416573  1771
Hongyan #400299
1 99999U 24029BR  24283.46883102  .00001103  00000-0  33518-4 0  9998
2 99999  50.0000 337.0786 0003481 299.7327   0.3331 13.44416573  1771
Hongyan #400300
1 99999U 24029BR  24283.46883102  .00001103  00000-0  33518-4 0  9998
2 99999  50.0000 338.2036 0003481 299.7327   0.3331 13.44416573  1771
Hongyan #400301
1 99999U 24029BR  24283.46883102  .00001103  00000-0  33518-4 0  9998
2 99999  50.0000 339.3286 0003481 299.7327   0.3331 13.44416573  1771
Hongyan #400302
1 99999U 24029BR  24283.46883102  .00001103  00000-0  33518-4 0  9998
2 99999  50.0000 340.4536 0003481 299.7327   0.3331 13.44416573  1771
Hongyan #400303
1 99999U 24029BR  24283.46883102  .00001103  00000-0  33518-4 0  9998
2 99999  50.0000 341.5786 0003481 299.7327   0.3331 13.44416573  1771
Hongyan #400304
1 99999U 24029BR  24283.46883102  .00001103  00000-0  33518-4 0  9998
2 99999  50.0000 342.7036 0003481 299.7327   0.3331 13.44416573  1771
Hongyan #400305
1 99999U 24029BR  24283.46883102  .00001103  00000-0  33518-4 0  9998
2 99999  50.0000 343.8286 0003481 299.7327   0.3331 13.44416573  1771
Hongyan #400306
1 99999U 24029BR  24283.46883102  .00001103  00000-0  33518-4 0  9998
2 99999  50.0000 344.9536 0003481 299.7327   0.3331 13.44416573  1771
Hongyan #400307
1 99999U 24029BR  24283.46883102  .00001103  00000-0  33518-4 0  9998
2 99999  50.0000 346.0786 0003481 299.7327   0.3331 13.44416573  1771
Hongyan #400308
1 99999U 24029BR  24283.46883102  .00001103  00000-0  33518-4 0  9998
2 99999  50.0000 347.2036 0003481 299.7327   0.3331 13.44416573  1771
Hongyan #400309
1 99999U 24029BR  24283.46883102  .00001103  00000-0  33518-4 0  9998
2 99999  50.0000 348.3286 0003481 299.7327   0.3331 13.44416573  1771
Hongyan #400310
1 99999U 24029BR  24283.46883102  .00001103  00000-0  33518-4 0  9998
2 99999  50.0000 349.4536 0003481 299.7327   0.3331 13.44416573  1771
Hongyan #400311
1 99999U 24029BR  24283.46883102  .00001103  00000-0  33518-4 0  9998
2 99999  50.0000 350.5786 0003481 299.7327   0.3331 13.44416573  1771
Hongyan #400312
1 99999U 24029BR  24283.46883102  .00001103  00000-0  33518-4 0  9998
2 99999  50.0000 351.7036 0003481 299.7327   0.3331 13.44416573  1771
Hongyan #400313
1 99999U 24029BR  24283.46883102  .00001103  00000-0  33518-4 0  9998
2 99999  50.0000 352.8286 0003481 299.7327   0.3331 13.44416573  1771
Hongyan #400314
1 99999U 24029BR  24283.46883102  .00001103  00000-0  33518-4 0  9998
2 99999  50.0000 353.9536 0003481 299.7327   0.3331 13.44416573  1771
Hongyan #400315
1 99999U 24029BR  24283.46883102  .00001103  00000-0  33518-4 0  9998
2 99999  50.0000 355.0786 0003481 299.7327   0.3331 13.44416573  1771
Hongyan #400316
1 99999U 24029BR  24283.46883102  .00001103  00000-0  33518-4 0  9998
2 99999  50.0000 356.2036 0003481 299.7327   0.3331 13.44416573  1771
Hongyan #400317
1 99999U 24029BR  24283.46883102  .00001103  00000-0  33518-4 0  9998
2 99999  50.0000 357.3286 0003481 299.7327   0.3331 13.44416573  1771
Hongyan #400318
1 99999U 24029BR  24283.46883102  .00001103  00000-0  33518-4 0  9998
2 99999  50.0000 358.4536 0003481 299.7327   0.3331 13.44416573  1771
